     2.100          NAVIGATION                              RINEX VERSION / TYPE
fic2rin                                 01/24/2015 00:18:19 PGM / RUN BY / DATE
                                                            END OF HEADER
18 15  1 23 12  0  0.0  .374314375222D-03  .272848410532D-11  .000000000000D+00
     .720000000000D+02  .660312500000D+02  .556737476065D-08  .752360752331D+00
     .357814133167D-05  .156192036811D-01  .961869955063D-05  .515375597572D+04
     .475200000000D+06 -.240281224251D-06  .135077495155D+01  .614672899246D-07
     .924951050895D+00  .180218750000D+03 -.199487565668D+01 -.883179645120D-08
     .299298181256D-09  .100000000000D+01  .182800000000D+04  .000000000000D+00
     .240000000000D+01  .000000000000D+00 -.111758708954D-07  .720000000000D+02
     .468006000000D+06  .400000000000D+01
19 15  1 23 12  0  0.0 -.497742556036D-03 -.147792889038D-11  .000000000000D+00
     .830000000000D+02 -.683125000000D+02  .482377235805D-08 -.155605796550D+01
    -.363029539585D-05  .108562334208D-01  .296533107758D-05  .515368389702D+04
     .475200000000D+06  .931322574615D-07 -.632712666154D+00 -.122934579849D-06
     .968301453642D+00  .321843750000D+03  .517008966996D+00 -.844785188694D-08
    -.646455498895D-10  .100000000000D+01  .182800000000D+04  .000000000000D+00
     .240000000000D+01  .000000000000D+00 -.149011611938D-07  .830000000000D+02
     .468006000000D+06  .400000000000D+01
20 15  1 23 12  0  0.0  .281775370240D-03  .420641299570D-11  .000000000000D+00
     .270000000000D+02  .500000000000D+02  .536950937590D-08  .828829247539D+00
     .269711017609D-05  .582695996854D-02  .107977539301D-04  .515577810860D+04
     .475200000000D+06 -.391155481339D-07  .129800270684D+01  .502914190292D-07
     .926143874798D+00  .151812500000D+03  .123972753192D+01 -.853856995143D-08
     .467876631797D-09  .100000000000D+01  .182800000000D+04  .000000000000D+00
     .240000000000D+01  .000000000000D+00 -.838190317154D-08  .270000000000D+02
     .468006000000D+06  .400000000000D+01
21 15  1 23 12  0  0.0 -.408680178225D-03 -.420641299570D-11  .000000000000D+00
     .700000000000D+01 -.100656250000D+03  .494877756502D-08  .175345598413D+01
    -.551715493202D-05  .220697046025D-01  .115819275379D-04  .515363666916D+04
     .475200000000D+06 -.251457095146D-06  .307056777896D+00 -.523403286934D-06
     .933775394693D+00  .149500000000D+03 -.195747616915D+01 -.822819988041D-08
    -.147863301957D-09  .100000000000D+01  .182800000000D+04  .000000000000D+00
     .240000000000D+01  .000000000000D+00 -.116415321827D-07  .700000000000D+01
     .468006000000D+06  .400000000000D+01
22 15  1 23 12  0  0.0  .310382805765D-03  .386535248253D-11  .000000000000D+00
     .900000000000D+02  .692500000000D+02  .560451916500D-08  .263971994259D+00
     .374205410480D-05  .740162818693D-02  .916048884392D-05  .515370549011D+04
     .475200000000D+06 -.102445483208D-06  .135218836741D+01  .108033418655D-06
     .922752507386D+00  .183125000000D+03 -.206936165797D+01 -.871929176493D-08
     .414660129402D-09  .100000000000D+01  .182800000000D+04  .000000000000D+00
     .340000000000D+01  .000000000000D+00 -.176951289177D-07  .900000000000D+02
     .468006000000D+06  .400000000000D+01
23 15  1 23 12  0  0.0 -.836905092001D-04 -.261479726760D-11  .000000000000D+00
     .330000000000D+02 -.115937500000D+02  .522628912449D-08 -.200281475803D+01
    -.780448317528D-06  .972080521751D-02  .433623790741D-05  .515366460800D+04
     .475200000000D+06 -.111758708954D-07  .242111678889D+01 -.111758708954D-06
     .949306512758D+00  .288906250000D+03 -.271559272585D+01 -.845606651483D-08
    -.155006456641D-09  .100000000000D+01  .182800000000D+04  .000000000000D+00
     .240000000000D+01  .000000000000D+00 -.200234353542D-07  .330000000000D+02
     .468006000000D+06  .400000000000D+01
24 15  1 23 12  0  0.0 -.422541052103D-04 -.682121026330D-12  .000000000000D+00
     .440000000000D+02 -.139062500000D+02  .432696594979D-08 -.264388703402D+01
    -.702217221260D-06  .294624816161D-02  .118501484394D-04  .515369485474D+04
     .475200000000D+06 -.260770320892D-07 -.283550673250D+01  .149011611938D-07
     .955062299573D+00  .150187500000D+03  .253032007593D+00 -.795640284469D-08
    -.311798701953D-09  .100000000000D+01  .182800000000D+04  .000000000000D+00
     .240000000000D+01  .000000000000D+00  .232830643654D-08  .440000000000D+02
     .468006000000D+06  .400000000000D+01
25 15  1 23 12  0  0.0  .137276947498D-05 -.250111042988D-11  .000000000000D+00
     .880000000000D+02  .984687500000D+02  .411267130927D-08  .161279058400D+01
     .507012009621D-05  .406247959472D-02  .769458711147D-05  .515373818588D+04
     .475200000000D+06 -.102445483208D-06 -.177549914743D+01  .651925802231D-07
     .977534560158D+00  .237718750000D+03  .660931317231D+00 -.808176520939D-08
     .448590114150D-09  .100000000000D+01  .182800000000D+04  .000000000000D+00
     .240000000000D+01  .000000000000D+00  .512227416039D-08  .880000000000D+02
     .468006000000D+06  .400000000000D+01
27 15  1 23 12  0  0.0  .463197939098D-04  .272848410532D-11  .000000000000D+00
     .200000000000D+02 -.533437500000D+02  .492699094323D-08 -.686092959600D+00
    -.276789069176D-05  .185138860252D-02  .266171991825D-05  .515368156052D+04
     .475200000000D+06 -.745058059692D-08 -.729774157383D+00 -.353902578354D-07
     .965999006376D+00  .330781250000D+03  .154167186025D+00 -.858392898367D-08
    -.939324840936D-10  .100000000000D+01  .182800000000D+04  .000000000000D+00
     .240000000000D+01  .000000000000D+00  .186264514923D-08  .200000000000D+02
     .468006000000D+06  .400000000000D+01
28 15  1 23 12  0  0.0  .414448790252D-03  .272848410532D-11  .000000000000D+00
     .660000000000D+02  .890312500000D+02  .403623955415D-08  .506485587215D-01
     .463798642159D-05  .197321345331D-01  .823289155960D-05  .515368843460D+04
     .475200000000D+06 -.288709998131D-06 -.170614614386D+01  .372529029846D-07
     .988063598506D+00  .239281250000D+03 -.167700166752D+01 -.829034532616D-08
     .516450083648D-09  .100000000000D+01  .182800000000D+04  .000000000000D+00
     .240000000000D+01  .000000000000D+00 -.111758708954D-07  .660000000000D+02
     .468006000000D+06  .400000000000D+01
30 15  1 23 12  0  0.0 -.862777233124D-04  .341060513165D-12  .000000000000D+00
     .640000000000D+02 -.149062500000D+02  .432732310752D-08  .271649175777D+01
    -.748783349991D-06  .971903442405D-03  .123195350170D-04  .515362268257D+04
     .475200000000D+06  .186264514923D-07 -.274574304614D+01 -.372529029846D-07
     .957496604034D+00  .139718750000D+03  .308887120432D+01 -.795997442203D-08
    -.390730561211D-09  .100000000000D+01  .182800000000D+04  .000000000000D+00
     .240000000000D+01  .000000000000D+00  .325962901115D-08  .640000000000D+02
     .468006000000D+06  .400000000000D+01
31 15  1 23 12  0  0.0  .324895605445D-03 -.795807864051D-12  .000000000000D+00
     .590000000000D+02  .590625000000D+01  .388087593977D-08  .268093043997D+01
     .370666384697D-06  .832877797075D-02  .123307108879D-04  .515371968269D+04
     .475200000000D+06  .335276126862D-07 -.278959682730D+01  .132247805595D-06
     .976720124405D+00  .151406250000D+03 -.567168043568D+00 -.759745932182D-08
    -.409302763389D-09  .100000000000D+01  .182800000000D+04  .000000000000D+00
     .240000000000D+01  .000000000000D+00 -.135041773319D-07  .590000000000D+02
     .468006000000D+06  .400000000000D+01
32 15  1 23 12  0  0.0 -.240989029408D-03  .886757334229D-11  .000000000000D+00
     .400000000000D+01  .735000000000D+02  .489520390489D-08 -.303757035237D+01
     .361911952496D-05  .113433159422D-01  .941567122936D-05  .515358733940D+04
     .475200000000D+06 -.154599547386D-06  .145014908512D+01  .484287738800D-07
     .946784098204D+00  .188187500000D+03  .890828164854D-02 -.813819613139D-08
     .482877256633D-09  .100000000000D+01  .182800000000D+04  .000000000000D+00
     .240000000000D+01  .000000000000D+00 -.372529029846D-08  .400000000000D+01
     .468006000000D+06  .400000000000D+01
 3 15  1 23 11 59 44.0  .166396610439D-03  .236468622461D-10  .000000000000D+00
     .100000000000D+02  .660312500000D+02  .465305096111D-08 -.574335688232D+00
     .335462391376D-05  .962869264185D-03  .102613121271D-04  .515376220512D+04
     .475184000000D+06  .540167093277D-07  .136667035963D+01  .316649675369D-07
     .959089201023D+00  .177968750000D+03 -.301021384427D+01 -.809533720329D-08
     .516092925913D-09  .100000000000D+01  .182800000000D+04  .000000000000D+00
     .240000000000D+01  .000000000000D+00  .139698386192D-08  .100000000000D+02
     .472176000000D+06  .400000000000D+01
 3 15  1 23 13 59 44.0  .166567042470D-03  .236468622461D-10  .000000000000D+00
     .110000000000D+02  .716875000000D+02  .464662212189D-08  .475534652818D+00
     .363588333130D-05  .963929807767D-03  .992976129055D-05  .515376417160D+04
     .482384000000D+06  .186264514923D-08  .136661187509D+01  .391155481339D-07
     .959092694472D+00  .184750000000D+03 -.300995663547D+01 -.814283918194D-08
     .514307137242D-09  .100000000000D+01  .182800000000D+04  .000000000000D+00
     .240000000000D+01  .000000000000D+00  .139698386192D-08  .110000000000D+02
     .475206000000D+06  .400000000000D+01
 1 15  1 23 14  0  0.0 -.984780490398D-05  .454747350886D-12  .000000000000D+00
     .610000000000D+02 -.875937500000D+02  .436553898508D-08 -.191218032381D+01
    -.464543700218D-05  .380064640194D-02  .122990459204D-04  .515367806816D+04
     .482400000000D+06  .819563865662D-07  .326324772439D+00 -.316649675369D-07
     .962159152168D+00  .141906250000D+03  .424399135482D+00 -.794818821680D-08
    -.159292349451D-09  .100000000000D+01  .182800000000D+04  .000000000000D+00
     .240000000000D+01  .000000000000D+00  .558793544769D-08  .610000000000D+02
     .475206000000D+06  .400000000000D+01
